[{"OBJECT_NAME":"STARLINK-1373","OBJECT_ID":"2020-025P","EPOCH":"2026-03-09T10:32:30.631488","MEAN_MOTION":15.50709832,"ECCENTRICITY":0.00045735,"INCLINATION":53.0504,"RA_OF_ASC_NODE":90.168,"ARG_OF_PERICENTER":8.973,"MEAN_ANOMALY":351.1359,"EPHEMERIS_TYPE":0,"CLASSIFICATION_TYPE":"U","NORAD_CAT_ID":45544,"ELEMENT_SET_NO":999,"REV_AT_EPOCH":32530,"BSTAR":0.0015713795,"MEAN_MOTION_DOT":0.00092504,"MEAN_MOTION_DDOT":0},{"OBJECT_NAME":"SITRO-AIS 47","OBJECT_ID":"2024-199AQ","EPOCH":"2026-03-09T22:30:46.287936","MEAN_MOTION":15.50302586,"ECCENTRICITY":0.00069068,"INCLINATION":97.3091,"RA_OF_ASC_NODE":303.1202,"ARG_OF_PERICENTER":299.6356,"MEAN_ANOMALY":60.4208,"EPHEMERIS_TYPE":0,"CLASSIFICATION_TYPE":"U","NORAD_CAT_ID":61773,"ELEMENT_SET_NO":999,"REV_AT_EPOCH":11902,"BSTAR":0.00080819381,"MEAN_MOTION_DOT":0.00045921,"MEAN_MOTION_DDOT":0}]
